{
  "type": "FeatureCollection",
  "features": [
    {
      "type": "Feature",
      "properties": {
        "norad_id": 35594,
        "name": "COSMOS 2251 DEB",
        "group": "cosmos-2251-debris",
        "lat": -41.630688242235195,
        "lon": -52.18540691567128,
        "alt_km": 589.8163490885099,
        "timestamp": "2025-12-09T14:52:26.558813+00:00",
        "meta_object_name": "COSMOS 2251 DEB",
        "meta_object_id": "1993-036AMM",
        "meta_epoch": "2025-12-09T02:34:25.968000",
        "meta_mean_motion": 14.87749225,
        "meta_eccentricity": 0.00305448,
        "meta_inclination": 73.8074,
        "meta_ra_of_asc_node": 113.8828,
        "meta_arg_of_pericenter": 225.3103,
        "meta_mean_anomaly": 134.5588,
        "meta_ephemeris_type": 0,
        "meta_classification_type": "U",
        "meta_norad_cat_id": 35594,
        "meta_element_set_no": 999,
        "meta_rev_at_epoch": 88131,
        "meta_bstar": 0.0022507147,
        "meta_mean_motion_dot": 0.00020735,
        "meta_mean_motion_ddot": 0,
        "tle_line1": "1 35594U 93036AMM 25343.10724500  .00020735  00000+0  22507-2 0  9997",
        "tle_line2": "2 35594  73.8074 113.8828 0030544 225.3103 134.5588 14.87749225881314"
      },
      "geometry": {
        "type": "Point",
        "coordinates": [
          -52.18540691567128,
          -41.630688242235195
        ]
      }
    },
    {
      "type": "Feature",
      "properties": {
        "norad_id": 35602,
        "name": "COSMOS 2251 DEB",
        "group": "cosmos-2251-debris",
        "lat": 15.016147465657557,
        "lon": 4.505321404150794,
        "alt_km": 462.4260888805029,
        "timestamp": "2025-12-09T14:52:26.558823+00:00",
        "meta_object_name": "COSMOS 2251 DEB",
        "meta_object_id": "1993-036AMV",
        "meta_epoch": "2025-12-09T06:52:58.268928",
        "meta_mean_motion": 15.34893397,
        "meta_eccentricity": 0.00902019,
        "meta_inclination": 73.9935,
        "meta_ra_of_asc_node": 189.6375,
        "meta_arg_of_pericenter": 256.1847,
        "meta_mean_anomaly": 230.0511,
        "meta_ephemeris_type": 0,
        "meta_classification_type": "U",
        "meta_norad_cat_id": 35602,
        "meta_element_set_no": 999,
        "meta_rev_at_epoch": 90038,
        "meta_bstar": 0.00059000015,
        "meta_mean_motion_dot": 0.00022844,
        "meta_mean_motion_ddot": 0,
        "tle_line1": "1 35602U 93036AMV 25343.28678552  .00022844  00000+0  59000-3 0  9993",
        "tle_line2": "2 35602  73.9935 189.6375 0090201 256.1847 230.0511 15.34893397900382"
      },
      "geometry": {
        "type": "Point",
        "coordinates": [
          4.505321404150794,
          15.016147465657557
        ]
      }
    },
    {
      "type": "Feature",
      "properties": {
        "norad_id": 35605,
        "name": "COSMOS 2251 DEB",
        "group": "cosmos-2251-debris",
        "lat": -49.87859194373405,
        "lon": -176.5562828753295,
        "alt_km": 462.34082272505293,
        "timestamp": "2025-12-09T14:52:26.558833+00:00",
        "meta_object_name": "COSMOS 2251 DEB",
        "meta_object_id": "1993-036AMY",
        "meta_epoch": "2025-12-08T17:29:07.135584",
        "meta_mean_motion": 15.31836492,
        "meta_eccentricity": 0.00282066,
        "meta_inclination": 73.8723,
        "meta_ra_of_asc_node": 345.2823,
        "meta_arg_of_pericenter": 280.9051,
        "meta_mean_anomaly": 78.8978,
        "meta_ephemeris_type": 0,
        "meta_classification_type": "U",
        "meta_norad_cat_id": 35605,
        "meta_element_set_no": 999,
        "meta_rev_at_epoch": 65910,
        "meta_bstar": 0.0070125726,
        "meta_mean_motion_dot": 0.002247,
        "meta_mean_motion_ddot": 0,
        "tle_line1": "1 35605U 93036AMY 25342.72855481  .00224700  00000+0  70126-2 0  9998",
        "tle_line2": "2 35605  73.8723 345.2823 0028206 280.9051  78.8978 15.31836492659101"
      },
      "geometry": {
        "type": "Point",
        "coordinates": [
          -176.5562828753295,
          -49.87859194373405
        ]
      }
    },
    {
      "type": "Feature",
      "properties": {
        "norad_id": 35606,
        "name": "COSMOS 2251 DEB",
        "group": "cosmos-2251-debris",
        "lat": -73.63040166840557,
        "lon": -82.75326488008534,
        "alt_km": 864.5382308994622,
        "timestamp": "2025-12-09T14:52:26.558843+00:00",
        "meta_object_name": "COSMOS 2251 DEB",
        "meta_object_id": "1993-036AMZ",
        "meta_epoch": "2025-12-08T08:54:08.063424",
        "meta_mean_motion": 13.41203227,
        "meta_eccentricity": 0.045776,
        "meta_inclination": 73.8108,
        "meta_ra_of_asc_node": 17.7606,
        "meta_arg_of_pericenter": 224.1264,
        "meta_mean_anomaly": 132.2461,
        "meta_ephemeris_type": 0,
        "meta_classification_type": "U",
        "meta_norad_cat_id": 35606,
        "meta_element_set_no": 999,
        "meta_rev_at_epoch": 60981,
        "meta_bstar": 0.0016476844,
        "meta_mean_motion_dot": 1.672e-05,
        "meta_mean_motion_ddot": 0,
        "tle_line1": "1 35606U 93036AMZ 25342.37092666  .00001672  00000+0  16477-2 0  9998",
        "tle_line2": "2 35606  73.8108  17.7606 0457760 224.1264 132.2461 13.41203227609814"
      },
      "geometry": {
        "type": "Point",
        "coordinates": [
          -82.75326488008534,
          -73.63040166840557
        ]
      }
    },
    {
      "type": "Feature",
      "properties": {
        "norad_id": 35611,
        "name": "COSMOS 2251 DEB",
        "group": "cosmos-2251-debris",
        "lat": -7.576560764431743,
        "lon": -176.80215011076243,
        "alt_km": 657.0566973471532,
        "timestamp": "2025-12-09T14:52:26.558853+00:00",
        "meta_object_name": "COSMOS 2251 DEB",
        "meta_object_id": "1993-036ANE",
        "meta_epoch": "2025-12-07T23:46:52.346496",
        "meta_mean_motion": 14.72654945,
        "meta_eccentricity": 0.0021935,
        "meta_inclination": 74.0173,
        "meta_ra_of_asc_node": 188.5564,
        "meta_arg_of_pericenter": 261.817,
        "meta_mean_anomaly": 98.0514,
        "meta_ephemeris_type": 0,
        "meta_classification_type": "U",
        "meta_norad_cat_id": 35611,
        "meta_element_set_no": 999,
        "meta_rev_at_epoch": 87220,
        "meta_bstar": 0.0026626176,
        "meta_mean_motion_dot": 0.00017044,
        "meta_mean_motion_ddot": 0,
        "tle_line1": "1 35611U 93036ANE 25341.99088364  .00017044  00000+0  26626-2 0  9998",
        "tle_line2": "2 35611  74.0173 188.5564 0021935 261.8170  98.0514 14.72654945872205"
      },
      "geometry": {
        "type": "Point",
        "coordinates": [
          -176.80215011076243,
          -7.576560764431743
        ]
      }
    },
    {
      "type": "Feature",
      "properties": {
        "norad_id": 35614,
        "name": "COSMOS 2251 DEB",
        "group": "cosmos-2251-debris",
        "lat": 3.3027082767979246,
        "lon": 152.56146096818475,
        "alt_km": 620.5794919120153,
        "timestamp": "2025-12-09T14:52:26.558863+00:00",
        "meta_object_name": "COSMOS 2251 DEB",
        "meta_object_id": "1993-036ANH",
        "meta_epoch": "2025-12-08T16:47:37.057344",
        "meta_mean_motion": 14.66956711,
        "meta_eccentricity": 0.00760294,
        "meta_inclination": 73.959,
        "meta_ra_of_asc_node": 335.2957,
        "meta_arg_of_pericenter": 190.7656,
        "meta_mean_anomaly": 169.189,
        "meta_ephemeris_type": 0,
        "meta_classification_type": "U",
        "meta_norad_cat_id": 35614,
        "meta_element_set_no": 999,
        "meta_rev_at_epoch": 87670,
        "meta_bstar": 0.0013359828,
        "meta_mean_motion_dot": 7.786e-05,
        "meta_mean_motion_ddot": 0,
        "tle_line1": "1 35614U 93036ANH 25342.69973446  .00007786  00000+0  13360-2 0  9996",
        "tle_line2": "2 35614  73.9590 335.2957 0076029 190.7656 169.1890 14.66956711876704"
      },
      "geometry": {
        "type": "Point",
        "coordinates": [
          152.56146096818475,
          3.3027082767979246
        ]
      }
    },
    {
      "type": "Feature",
      "properties": {
        "norad_id": 35645,
        "name": "COSMOS 2251 DEB",
        "group": "cosmos-2251-debris",
        "lat": 41.62605902663406,
        "lon": -101.2321593557552,
        "alt_km": 757.4823437672821,
        "timestamp": "2025-12-09T14:52:26.558874+00:00",
        "meta_object_name": "COSMOS 2251 DEB",
        "meta_object_id": "1993-036ANL",
        "meta_epoch": "2025-12-08T01:41:49.099488",
        "meta_mean_motion": 14.45466188,
        "meta_eccentricity": 0.00693731,
        "meta_inclination": 73.964,
        "meta_ra_of_asc_node": 96.4758,
        "meta_arg_of_pericenter": 254.7329,
        "meta_mean_anomaly": 104.6152,
        "meta_ephemeris_type": 0,
        "meta_classification_type": "U",
        "meta_norad_cat_id": 35645,
        "meta_element_set_no": 999,
        "meta_rev_at_epoch": 86704,
        "meta_bstar": 0.0029502414,
        "meta_mean_motion_dot": 0.00010695,
        "meta_mean_motion_ddot": 0,
        "tle_line1": "1 35645U 93036ANL 25342.07070717  .00010695  00000+0  29502-2 0  9999",
        "tle_line2": "2 35645  73.9640  96.4758 0069373 254.7329 104.6152 14.45466188867044"
      },
      "geometry": {
        "type": "Point",
        "coordinates": [
          -101.2321593557552,
          41.62605902663406
        ]
      }
    }
  ]
}